STARLINK-2631
1 18366C 21038P   21326.17793907  .00006358  00000-0  42594-3 0  3261
2 18366  53.0526 192.9330 0001846  78.4783 146.7775 15.06393654    13
